NORAD_CAT_ID,OBJECT_NAME,OBJECT_TYPE,EPOCH,MEAN_MOTION,ECCENTRICITY,INCLINATION,RA_OF_ASC_NODE,ARG_OF_PERICENTER,MEAN_ANOMALY,BSTAR,MEAN_MOTION_DOT,MEAN_MOTION_DDOT,TLE_LINE0,TLE_LINE1,TLE_LINE2,SEMIMAJOR_AXIS,PERIOD,APOGEE,PERIGEE,DECAYED
53268.0,STARLINK-4109,PAYLOAD,2024-05-17 18:39:13,15.08804279,0.000219,53.2167,281.0702,78.1096,282.0141,0.00023015,3.373e-05,0.0,0 STARLINK-4109,1 53268U 22086AC  24138.77724149  .00003373  00000-0  23015-3 0  9991,2 53268  53.2167 281.0702 0002190  78.1096 282.0141 15.08804279101119,6917.99,95.44,541.37,538.34,0.0
53268.0,STARLINK-4109,PAYLOAD,2024-05-18 02:36:09,15.08843613,0.0001369,53.2175,279.5843,78.1449,281.9697,0.0010089,0.00015807,0.0,0 STARLINK-4109,1 53268U 22086AC  24139.10843939  .00015807  00000-0  10089-2 0  9999,2 53268  53.2175 279.5843 0001369  78.1449 281.9697 15.08843613101169,6917.869,95.437,540.681,538.787,0.0
53268.0,STARLINK-4109,PAYLOAD,2024-05-18 13:43:51,15.0885257,0.0001981,53.2127,277.5021,80.2056,279.916,0.00078685,0.00012261,0.0,0 STARLINK-4109,1 53268U 22086AC  24139.57212025  .00012261  00000-0  78685-3 0  9994,2 53268  53.2127 277.5021 0001981  80.2056 279.9160 15.08852570101412,6917.842,95.437,541.077,538.337,0.0
53268.0,STARLINK-4109,PAYLOAD,2024-05-18 18:30:00,15.0886686,0.0001704,53.2151,276.6101,92.446,267.6727,0.0020718,0.00032863,0.0,0 STARLINK-4109,1 53268U 22086AC  24139.77083457  .00032863  00000-0  20718-2 0  9994,2 53268  53.2151 276.6101 0001704  92.4460 267.6727 15.08866860101448,6917.798,95.436,540.842,538.484,0.0
53268.0,STARLINK-4109,PAYLOAD,2024-05-19 13:34:37,15.08819861,0.0001742,53.2156,273.04,103.5347,256.5839,-0.0010571,-0.00017063,0.0,0 STARLINK-4109,1 53268U 22086AC  24140.56571555 -.00017063  00000-0 -10571-2 0  9997,2 53268  53.2156 273.0400 0001742 103.5347 256.5839 15.08819861101569,6917.942,95.439,541.012,538.602,0.0
53268.0,STARLINK-4109,PAYLOAD,2024-05-19 18:20:47,15.08822721,0.0002131,53.2162,272.1468,101.6069,258.5163,-0.00047106,-7.774e-05,0.0,0 STARLINK-4109,1 53268U 22086AC  24140.76443905 -.00007774  00000-0 -47106-3 0  9999,2 53268  53.2162 272.1468 0002131 101.6069 258.5163 15.08822721101418,6917.933,95.439,541.272,538.324,0.0
53268.0,STARLINK-4109,PAYLOAD,2024-05-20 13:25:25,15.08848457,0.0001695,53.2141,268.5792,106.7164,253.4014,0.0013128,0.00020672,0.0,0 STARLINK-4109,1 53268U 22086AC  24141.55932296  .00020672  00000-0  13128-2 0  9999,2 53268  53.2141 268.5792 0001695 106.7164 253.4014 15.08848457101536,6917.855,95.437,540.892,538.547,0.0
53268.0,STARLINK-4109,PAYLOAD,2024-05-20 18:11:34,15.08845985,0.0001395,53.217,267.686,105.3434,254.7713,0.00071829,0.00011164,0.0,0 STARLINK-4109,1 53268U 22086AC  24141.75804184  .00011164  00000-0  71829-3 0  9994,2 53268  53.2170 267.6860 0001395 105.3434 254.7713 15.08845985101562,6917.862,95.437,540.692,538.762,0.0
53268.0,STARLINK-4109,PAYLOAD,2024-05-21 13:16:12,15.08834014,0.0001366,53.2177,264.1156,100.4885,259.6261,0.0001417,1.968e-05,0.0,0 STARLINK-4109,1 53268U 22086AC  24142.55292709  .00001968  00000-0  14170-3 0  9994,2 53268  53.2177 264.1156 0001366 100.4885 259.6261 15.08834014101689,6917.899,95.438,540.709,538.819,0.0
53268.0,STARLINK-4109,PAYLOAD,2024-05-22 11:31:36,15.08841243,0.0001297,53.217,259.9496,104.7423,255.3713,0.00011586,1.557e-05,0.0,0 STARLINK-4109,1 53268U 22086AC  24143.48028560  .00001557  00000-0  11586-3 0  9991,2 53268  53.2170 259.9496 0001297 104.7423 255.3713 15.08841243102003,6917.877,95.437,540.639,538.844,0.0
53268.0,STARLINK-4109,PAYLOAD,2024-05-23 12:57:47,15.08840163,0.0001168,53.2158,255.1926,67.7446,292.367,0.00015276,2.144e-05,0.0,0 STARLINK-4109,1 53268U 22086AC  24144.54012844  .00002144  00000-0  15276-3 0  9990,2 53268  53.2158 255.1926 0001168  67.7446 292.3670 15.08840163101984,6917.88,95.438,540.553,538.937,0.0
53268.0,STARLINK-4109,PAYLOAD,2024-05-24 14:23:57,15.08841239,0.0001251,53.2156,250.4421,69.1716,290.941,9.0842e-05,1.158e-05,0.0,0 STARLINK-4109,1 53268U 22086AC  24145.59997002  .00001158  00000-0  90842-4 0  9991,2 53268  53.2156 250.4421 0001251  69.1716 290.9410 15.08841239102329,6917.877,95.437,540.607,538.876,0.0
53268.0,STARLINK-4109,PAYLOAD,2024-05-24 15:59:20,15.08848776,9.83e-05,53.2152,250.1402,83.889,276.2214,0.00018685,2.688e-05,0.0,0 STARLINK-4109,1 53268U 22086AC  24145.66620547  .00002688  00000-0  18685-3 0  9999,2 53268  53.2152 250.1402 0000983  83.8890 276.2214 15.08848776102151,6917.854,95.437,540.399,539.039,0.0
53268.0,STARLINK-4109,PAYLOAD,2024-05-24 23:56:14,15.0885781,6.95e-05,53.2149,248.6503,135.8007,224.3041,0.00019899,2.882e-05,0.0,0 STARLINK-4109,1 53268U 22086AC  24145.99739421  .00002882  00000-0  19899-3 0  9991,2 53268  53.2149 248.6503 0000695 135.8007 224.3041 15.08857810102206,6917.826,95.436,540.172,539.21,0.0
53268.0,STARLINK-4109,PAYLOAD,2024-05-25 11:03:57,15.08842624,0.000103,53.2152,246.5692,76.9614,283.1493,0.00013633,1.883e-05,0.0,0 STARLINK-4109,1 53268U 22086AC  24146.46108713  .00001883  00000-0  13633-3 0  9998,2 53268  53.2152 246.5692 0001030  76.9614 283.1493 15.08842624102277,6917.872,95.437,540.45,539.025,0.0
53268.0,STARLINK-4109,PAYLOAD,2024-05-25 23:47:03,15.08745492,0.0007871,53.215,244.1915,250.9517,109.0623,-0.0014794,-0.00023715,0.0,0 STARLINK-4109,1 53268U 22086AC  24146.99101729 -.00023715  00000-0 -14794-2 0  9994,2 53268  53.2150 244.1915 0007871 250.9517 109.0623 15.08745492102357,6918.169,95.444,545.48,534.589,0.0
53268.0,STARLINK-4109,PAYLOAD,2024-05-26 12:30:07,15.08848073,9.88e-05,53.2149,241.8142,119.1666,240.9425,0.00011282,1.509e-05,0.0,0 STARLINK-4109,1 53268U 22086AC  24147.52092552  .00001509  00000-0  11282-3 0  9992,2 53268  53.2149 241.8142 0000988 119.1666 240.9425 15.08848073102437,6917.856,95.437,540.404,539.037,0.0
53268.0,STARLINK-4109,PAYLOAD,2024-05-26 14:05:31,15.08844939,0.0001288,53.2166,241.5163,140.5775,219.5311,5.5116e-05,5.9e-06,0.0,0 STARLINK-4109,1 53268U 22086AC  24147.58716779  .00000590  00000-0  55116-4 0  9996,2 53268  53.2166 241.5163 0001288 140.5775 219.5311 15.08844939102623,6917.865,95.437,540.621,538.839,0.0
53268.0,STARLINK-4109,PAYLOAD,2024-05-27 12:20:55,15.08841926,0.0001607,53.2171,237.361,49.7902,310.3231,0.0001519,2.13e-05,0.0,0 STARLINK-4109,1 53268U 22086AC  24148.51453226  .00002130  00000-0  15190-3 0  9994,2 53268  53.2171 237.3610 0001607  49.7902 310.3231 15.08841926102585,6917.875,95.437,540.851,538.628,0.0
53268.0,STARLINK-4109,PAYLOAD,2024-05-27 15:31:41,15.08843681,0.0001131,53.2166,236.7634,91.3665,268.7456,0.00016704,2.372e-05,0.0,0 STARLINK-4109,1 53268U 22086AC  24148.64700811  .00002372  00000-0  16704-3 0  9993,2 53268  53.2166 236.7634 0001131  91.3665 268.7456 15.08843681102786,6917.869,95.437,540.517,538.952,0.0
53268.0,STARLINK-4109,PAYLOAD,2024-05-28 12:11:42,15.08845213,0.0001139,53.2166,232.8954,109.6688,250.4427,5.0803e-05,5.21e-06,0.0,0 STARLINK-4109,1 53268U 22086AC  24149.50812662  .00000521  00000-0  50803-4 0  9990,2 53268  53.2166 232.8954 0001139 109.6688 250.4427 15.08845213102918,6917.864,95.437,540.517,538.942,0.0
53268.0,STARLINK-4109,PAYLOAD,2024-05-29 12:02:29,15.08840621,0.0001178,53.2169,228.4354,96.6203,263.4924,1.2211e-05,-9.3e-07,0.0,0 STARLINK-4109,1 53268U 22086AC  24150.50172889 -.00000093  00000-0  12211-4 0  9998,2 53268  53.2169 228.4354 0001178  96.6203 263.4924 15.08840621102887,6917.878,95.438,540.558,538.929,0.0
53268.0,STARLINK-4109,PAYLOAD,2024-05-29 15:13:15,15.08839939,0.0001214,53.2172,227.8417,97.4667,262.6463,-1.0612e-06,-3.05e-06,0.0,0 STARLINK-4109,1 53268U 22086AC  24150.63420958 -.00000305  00000-0 -10612-5 0  9996,2 53268  53.2172 227.8417 0001214  97.4667 262.6463 15.08839939103080,6917.881,95.438,540.585,538.906,0.0
53268.0,STARLINK-4109,PAYLOAD,2024-05-30 11:53:16,15.08840395,0.0001244,53.2173,223.9771,95.0926,265.0208,5.5638e-05,5.98e-06,0.0,0 STARLINK-4109,1 53268U 22086AC  24151.49532847  .00000598  00000-0  55638-4 0  9990,2 53268  53.2173 223.9771 0001244  95.0926 265.0208 15.08840395103213,6917.879,95.438,540.605,538.884,0.0
53268.0,STARLINK-4109,PAYLOAD,2024-05-30 15:04:02,15.08840974,0.0001254,53.2173,223.3823,97.061,263.0524,5.8626e-05,6.45e-06,0.0,0 STARLINK-4109,1 53268U 22086AC  24151.62780792  .00000645  00000-0  58626-4 0  9992,2 53268  53.2173 223.3823 0001254  97.0610 263.0524 15.08840974103052,6917.877,95.437,540.61,538.875,0.0
53268.0,STARLINK-4109,PAYLOAD,2024-05-31 10:08:40,15.08838334,0.0001301,53.2174,219.814,91.0333,269.0808,6.7608e-05,7.88e-06,0.0,0 STARLINK-4109,1 53268U 22086AC  24152.42268985  .00000788  00000-0  67608-4 0  9994,2 53268  53.2174 219.8140 0001301  91.0333 269.0808 15.08838334103355,6917.885,95.438,540.65,538.85,0.0
53268.0,STARLINK-4109,PAYLOAD,2024-06-01 03:37:54,15.08838487,0.0001293,53.2172,216.5457,93.4855,266.6285,4.8365e-05,4.82e-06,0.0,0 STARLINK-4109,1 53268U 22086AC  24153.15133075  .00000482  00000-0  48365-4 0  9996,2 53268  53.2172 216.5457 0001293  93.4855 266.6285 15.08838487103286,6917.885,95.438,540.644,538.856,0.0
53268.0,STARLINK-4109,PAYLOAD,2024-06-01 11:34:51,15.08831824,0.0001279,53.2168,215.0589,94.368,265.7459,-6.1891e-06,-3.86e-06,0.0,0 STARLINK-4109,1 53268U 22086AC  24153.48253856 -.00000386  00000-0 -61891-5 0  9997,2 53268  53.2168 215.0589 0001279  94.3680 265.7459 15.08831824103338,6917.905,95.438,540.655,538.886,0.0
53268.0,STARLINK-4109,PAYLOAD,2024-06-02 13:01:01,15.08839464,0.0001311,53.2167,210.2987,87.6968,272.4175,6.5863e-05,7.6e-06,0.0,0 STARLINK-4109,1 53268U 22086AC  24154.54237489  .00000760  00000-0  65863-4 0  9995,2 53268  53.2167 210.2987 0001311  87.6968 272.4175 15.08839464103492,6917.882,95.438,540.654,538.84,0.0
53268.0,STARLINK-4109,PAYLOAD,2024-06-02 20:57:56,15.08843559,0.0001312,53.2167,208.8121,85.7955,274.3187,-1.0515e-05,-4.55e-06,0.0,0 STARLINK-4109,1 53268U 22086AC  24154.87357436 -.00000455  00000-0 -10515-4 0  9993,2 53268  53.2167 208.8121 0001312  85.7955 274.3187 15.08843559103721,6917.87,95.437,540.642,538.827,0.0
